start=new Date('2022-10-31T00:00:00.000Z').valueOf();
sats=[{"MEAN_MOTION_DDOT":"0.0000000000000","MEAN_MOTION_DOT":"-0.00001840","RCS_SIZE":"LARGE","PERIAPSIS":"538.164","ECCENTRICITY":"0.00022910","REF_FRAME":"TEME","CENTER_NAME":"EARTH","PERIOD":"95.438","MEAN_ANOMALY":"323.2470","INCLINATION":"53.2181","MEAN_ELEMENT_THEORY":"SGP4","ARG_OF_PERICENTER":"36.8679","EPHEMERIS_TYPE":"0","TLE_LINE1":"1 52707U 22053BD  22303.23700230 -.00001840  00000-0 -97503-4 0  9993","GP_ID":"216505336","COUNTRY_CODE":"US","TLE_LINE2":"2 52707  53.2181 239.8861 0002291  36.8679 323.2470 15.08838898 26224","FILE":"3637867","RA_OF_ASC_NODE":"239.8861","OBJECT_NAME":"STARLINK-4007","REV_AT_EPOCH":"2622","LAUNCH_DATE":"2022-05-18","TIME_SYSTEM":"UTC","SITE":"AFETR","MEAN_MOTION":"15.08838898","ELEMENT_SET_NO":"999","APOAPSIS":"541.334","NORAD_CAT_ID":"52707","CLASSIFICATION_TYPE":"U","OBJECT_TYPE":"PAYLOAD","EPOCH":"2022-10-30T05:41:16.998720","SEMIMAJOR_AXIS":"6917.884","BSTAR":"-0.00009750300000","DECAY_DATE":null,"OBJECT_ID":"2022-053BD"},{"RA_OF_ASC_NODE":"237.0483","FILE":"3637924","GP_ID":"216531589","COUNTRY_CODE":"US","TLE_LINE2":"2 52708  53.2190 237.0483 0002429  29.8166 330.2964 15.08833038 26464","TLE_LINE1":"1 52708U 22053BE  22303.86628097 -.00001276  00000-0 -62080-4 0  9998","ARG_OF_PERICENTER":"29.8166","EPHEMERIS_TYPE":"0","MEAN_ELEMENT_THEORY":"SGP4","PERIOD":"95.438","MEAN_ANOMALY":"330.2964","INCLINATION":"53.2190","CENTER_NAME":"EARTH","REF_FRAME":"TEME","ECCENTRICITY":"0.00024290","MEAN_MOTION_DDOT":"0.0000000000000","MEAN_MOTION_DOT":"-0.00001276","RCS_SIZE":"LARGE","PERIAPSIS":"538.086","OBJECT_ID":"2022-053BE","DECAY_DATE":null,"BSTAR":"-0.00006208000000","SEMIMAJOR_AXIS":"6917.902","EPOCH":"2022-10-30T20:47:26.675808","CLASSIFICATION_TYPE":"U","OBJECT_TYPE":"PAYLOAD","NORAD_CAT_ID":"52708","APOAPSIS":"541.447","SITE":"AFETR","MEAN_MOTION":"15.08833038","ELEMENT_SET_NO":"999","LAUNCH_DATE":"2022-05-18","TIME_SYSTEM":"UTC","REV_AT_EPOCH":"2646","OBJECT_NAME":"STARLINK-3962"},{"ECCENTRICITY":"0.00016090","MEAN_MOTION_DDOT":"0.0000000000000","MEAN_MOTION_DOT":"0.00031426","RCS_SIZE":"LARGE","PERIAPSIS":"538.726","REF_FRAME":"TEME","PERIOD":"95.439","INCLINATION":"53.2142","MEAN_ANOMALY":"249.5073","CENTER_NAME":"EARTH","EPHEMERIS_TYPE":"0","ARG_OF_PERICENTER":"59.7645","MEAN_ELEMENT_THEORY":"SGP4","TLE_LINE1":"1 52830U 22062A   22303.91668981  .00031426  00000-0  19855-2 0  9994","FILE":"3637924","GP_ID":"216531764","COUNTRY_CODE":"US","TLE_LINE2":"2 52830  53.2142 136.8195 0001609  59.7645 249.5073 15.08809476  1304","RA_OF_ASC_NODE":"136.8195","REV_AT_EPOCH":"130","OBJECT_NAME":"STARLINK-4091","SITE":"AFETR","ELEMENT_SET_NO":"999","MEAN_MOTION":"15.08809476","LAUNCH_DATE":"2022-06-17","TIME_SYSTEM":"UTC","APOAPSIS":"540.952","NORAD_CAT_ID":"52830","CLASSIFICATION_TYPE":"U","OBJECT_TYPE":"PAYLOAD","SEMIMAJOR_AXIS":"6917.974","EPOCH":"2022-10-30T22:00:01.999584","BSTAR":"0.00198550000000","OBJECT_ID":"2022-062A","DECAY_DATE":null},{"TLE_LINE1":"1 52831U 22062B   22303.91668981  .00033940  00000-0  21423-2 0  9992","FILE":"3637924","TLE_LINE2":"2 52831  53.2149 136.8239 0001428  65.6144 183.6413 15.08806387  1304","COUNTRY_CODE":"US","GP_ID":"216532350","RA_OF_ASC_NODE":"136.8239","ECCENTRICITY":"0.00014280","PERIAPSIS":"538.860","RCS_SIZE":"LARGE","MEAN_MOTION_DOT":"0.00033940","MEAN_MOTION_DDOT":"0.0000000000000","REF_FRAME":"TEME","PERIOD":"95.440","INCLINATION":"53.2149","MEAN_ANOMALY":"183.6413","CENTER_NAME":"EARTH","EPHEMERIS_TYPE":"0","ARG_OF_PERICENTER":"65.6144","MEAN_ELEMENT_THEORY":"SGP4","OBJECT_TYPE":"PAYLOAD","CLASSIFICATION_TYPE":"U","SEMIMAJOR_AXIS":"6917.983","EPOCH":"2022-10-30T22:00:01.999584","BSTAR":"0.00214230000000","OBJECT_ID":"2022-062B","DECAY_DATE":null,"REV_AT_EPOCH":"130","OBJECT_NAME":"STARLINK-4089","SITE":"AFETR","MEAN_MOTION":"15.08806387","ELEMENT_SET_NO":"999","TIME_SYSTEM":"UTC","LAUNCH_DATE":"2022-06-17","APOAPSIS":"540.836","NORAD_CAT_ID":"52831"},{"RA_OF_ASC_NODE":"136.8238","FILE":"3637924","TLE_LINE2":"2 52832  53.2150 136.8238 0001731  44.9655 224.2890 15.08810186  1303","COUNTRY_CODE":"US","GP_ID":"216531183","TLE_LINE1":"1 52832U 22062C   22303.91668981  .00033830  00000-0  21352-2 0  9992","ARG_OF_PERICENTER":"44.9655","EPHEMERIS_TYPE":"0","MEAN_ELEMENT_THEORY":"SGP4","PERIOD":"95.439","INCLINATION":"53.2150","MEAN_ANOMALY":"224.2890","CENTER_NAME":"EARTH","REF_FRAME":"TEME","ECCENTRICITY":"0.00017310","PERIAPSIS":"538.639","RCS_SIZE":"LARGE","MEAN_MOTION_DOT":"0.00033830","MEAN_MOTION_DDOT":"0.0000000000000","OBJECT_ID":"2022-062C","DECAY_DATE":null,"BSTAR":"0.00213520000000","SEMIMAJOR_AXIS":"6917.972","EPOCH":"2022-10-30T22:00:01.999584","OBJECT_TYPE":"PAYLOAD","CLASSIFICATION_TYPE":"U","NORAD_CAT_ID":"52832","APOAPSIS":"541.034","ELEMENT_SET_NO":"999","SITE":"AFETR","MEAN_MOTION":"15.08810186","TIME_SYSTEM":"UTC","LAUNCH_DATE":"2022-06-17","REV_AT_EPOCH":"130","OBJECT_NAME":"STARLINK-4083"},{"OBJECT_TYPE":"PAYLOAD","CLASSIFICATION_TYPE":"U","SEMIMAJOR_AXIS":"6917.968","EPOCH":"2022-10-30T22:00:01.999584","BSTAR":"0.00202820000000","OBJECT_ID":"2022-062D","DECAY_DATE":null,"REV_AT_EPOCH":"130","OBJECT_NAME":"STARLINK-4086","SITE":"AFETR","MEAN_MOTION":"15.08811447","ELEMENT_SET_NO":"999","TIME_SYSTEM":"UTC","LAUNCH_DATE":"2022-06-17","APOAPSIS":"540.858","NORAD_CAT_ID":"52833","TLE_LINE1":"1 52833U 22062D   22303.91668981  .00032113  00000-0  20282-2 0  9997","FILE":"3637924","COUNTRY_CODE":"US","TLE_LINE2":"2 52833  53.2160 136.8184 0001482  57.9145 231.3616 15.08811447  1302","GP_ID":"216531933","RA_OF_ASC_NODE":"136.8184","ECCENTRICITY":"0.00014820","RCS_SIZE":"LARGE","PERIAPSIS":"538.807","MEAN_MOTION_DOT":"0.00032113","MEAN_MOTION_DDOT":"0.0000000000000","REF_FRAME":"TEME","PERIOD":"95.439","INCLINATION":"53.2160","MEAN_ANOMALY":"231.3616","CENTER_NAME":"EARTH","ARG_OF_PERICENTER":"57.9145","EPHEMERIS_TYPE":"0","MEAN_ELEMENT_THEORY":"SGP4"},{"REV_AT_EPOCH":"130","OBJECT_NAME":"STARLINK-4108","ELEMENT_SET_NO":"999","SITE":"AFETR","MEAN_MOTION":"15.08811006","LAUNCH_DATE":"2022-06-17","TIME_SYSTEM":"UTC","APOAPSIS":"540.865","NORAD_CAT_ID":"52834","CLASSIFICATION_TYPE":"U","OBJECT_TYPE":"PAYLOAD","SEMIMAJOR_AXIS":"6917.969","EPOCH":"2022-10-30T22:00:01.999584","BSTAR":"0.00191050000000","OBJECT_ID":"2022-062E","DECAY_DATE":null,"ECCENTRICITY":"0.00014910","MEAN_MOTION_DDOT":"0.0000000000000","MEAN_MOTION_DOT":"0.00030224","PERIAPSIS":"538.803","RCS_SIZE":"LARGE","REF_FRAME":"TEME","PERIOD":"95.439","INCLINATION":"53.2141","MEAN_ANOMALY":"269.1008","CENTER_NAME":"EARTH","EPHEMERIS_TYPE":"0","ARG_OF_PERICENTER":"60.1601","MEAN_ELEMENT_THEORY":"SGP4","TLE_LINE1":"1 52834U 22062E   22303.91668981  .00030224  00000-0  19105-2 0  9991","FILE":"3637924","GP_ID":"216531347","COUNTRY_CODE":"US","TLE_LINE2":"2 52834  53.2141 136.8246 0001491  60.1601 269.1008 15.08811006  1309","RA_OF_ASC_NODE":"136.8246"},{"NORAD_CAT_ID":"52835","APOAPSIS":"540.909","SITE":"AFETR","ELEMENT_SET_NO":"999","MEAN_MOTION":"15.08828537","LAUNCH_DATE":"2022-06-17","TIME_SYSTEM":"UTC","REV_AT_EPOCH":"130","OBJECT_NAME":"STARLINK-4080","OBJECT_ID":"2022-062F","DECAY_DATE":null,"BSTAR":"0.00178170000000","SEMIMAJOR_AXIS":"6917.915","EPOCH":"2022-10-30T22:00:01.999584","CLASSIFICATION_TYPE":"U","OBJECT_TYPE":"PAYLOAD","EPHEMERIS_TYPE":"0","ARG_OF_PERICENTER":"55.0542","MEAN_ELEMENT_THEORY":"SGP4","INCLINATION":"53.2152","PERIOD":"95.438","MEAN_ANOMALY":"294.1862","CENTER_NAME":"EARTH","REF_FRAME":"TEME","ECCENTRICITY":"0.00016320","MEAN_MOTION_DDOT":"0.0000000000000","MEAN_MOTION_DOT":"0.00028173","RCS_SIZE":"LARGE","PERIAPSIS":"538.651","RA_OF_ASC_NODE":"136.8325","FILE":"3637924","GP_ID":"216532092","COUNTRY_CODE":"US","TLE_LINE2":"2 52835  53.2152 136.8325 0001632  55.0542 294.1862 15.08828537  1307","TLE_LINE1":"1 52835U 22062F   22303.91668981  .00028173  00000-0  17817-2 0  9990"},{"ARG_OF_PERICENTER":"67.3793","EPHEMERIS_TYPE":"0","MEAN_ELEMENT_THEORY":"SGP4","PERIOD":"95.440","MEAN_ANOMALY":"301.9143","INCLINATION":"53.2160","CENTER_NAME":"EARTH","REF_FRAME":"TEME","ECCENTRICITY":"0.00014150","RCS_SIZE":"LARGE","PERIAPSIS":"538.861","MEAN_MOTION_DDOT":"0.0000000000000","MEAN_MOTION_DOT":"0.00009234","RA_OF_ASC_NODE":"136.8369","FILE":"3637924","TLE_LINE2":"2 52836  53.2160 136.8369 0001415  67.3793 301.9143 15.08809000  1301","COUNTRY_CODE":"US","GP_ID":"216531601","TLE_LINE1":"1 52836U 22062G   22303.91668981  .00009234  00000-0  59803-3 0  9990","NORAD_CAT_ID":"52836","APOAPSIS":"540.819","SITE":"AFETR","MEAN_MOTION":"15.08809000","ELEMENT_SET_NO":"999","TIME_SYSTEM":"UTC","LAUNCH_DATE":"2022-06-17","REV_AT_EPOCH":"130","OBJECT_NAME":"STARLINK-4043","OBJECT_ID":"2022-062G","DECAY_DATE":null,"BSTAR":"0.00059803000000","SEMIMAJOR_AXIS":"6917.975","EPOCH":"2022-10-30T22:00:01.999584","OBJECT_TYPE":"PAYLOAD","CLASSIFICATION_TYPE":"U"},{"RA_OF_ASC_NODE":"136.8384","TLE_LINE1":"1 52837U 22062H   22303.91668981  .00025861  00000-0  16380-2 0  9997","FILE":"3637924","GP_ID":"216531516","COUNTRY_CODE":"US","TLE_LINE2":"2 52837  53.2156 136.8384 0002191  39.9170   9.3582 15.08816953  1301","INCLINATION":"53.2156","PERIOD":"95.439","MEAN_ANOMALY":"9.3582","CENTER_NAME":"EARTH","EPHEMERIS_TYPE":"0","ARG_OF_PERICENTER":"39.9170","MEAN_ELEMENT_THEORY":"SGP4","ECCENTRICITY":"0.00021910","MEAN_MOTION_DDOT":"0.0000000000000","MEAN_MOTION_DOT":"0.00025861","RCS_SIZE":"LARGE","PERIAPSIS":"538.300","REF_FRAME":"TEME","BSTAR":"0.00163800000000","OBJECT_ID":"2022-062H","DECAY_DATE":null,"CLASSIFICATION_TYPE":"U","OBJECT_TYPE":"PAYLOAD","SEMIMAJOR_AXIS":"6917.951","EPOCH":"2022-10-30T22:00:01.999584","APOAPSIS":"541.332","NORAD_CAT_ID":"52837","REV_AT_EPOCH":"130","OBJECT_NAME":"STARLINK-4036","ELEMENT_SET_NO":"999","SITE":"AFETR","MEAN_MOTION":"15.08816953","LAUNCH_DATE":"2022-06-17","TIME_SYSTEM":"UTC"}];
